

*******************************************************************************
Ephemeris / WWW_USER Tue Apr 23 13:04:56 2024 Pasadena, USA      / Horizons
*******************************************************************************
Target body name: Juno (spacecraft) (-61)         {source: juno_merged_DE436}
Center body name: Sun (10)                        {source: juno_merged_DE436}
Center-site name: BODY CENTER
*******************************************************************************
Start time      : A.D. 2016-Aug-01 00:00:00.0000 TDB
Stop  time      : A.D. 2016-Aug-30 00:00:00.0000 TDB
Step-size       : 1440 minutes
*******************************************************************************
Center geodetic : 0.0, 0.0, 0.0                   {E-lon(deg),Lat(deg),Alt(km)}
Center cylindric: 0.0, 0.0, 0.0                   {E-lon(deg),Dxy(km),Dz(km)}
Center radii    : 695700.0, 695700.0, 695700.0 km {Equator_a, b, pole_c}
Keplerian GM    : 1.3271244004127939E+11 km^3/s^2
Output units    : KM-S, deg, Julian Day Number (Tp)
Calendar mode   : Gregorian
Output type     : GEOMETRIC osculating elements
Output format   : 10
Reference frame : Ecliptic of J2000.0
*******************************************************************************
            JDTDB,            Calendar Date (TDB),                     EC,                     QR,                     IN,                     OM,                      W,                     Tp,                      N,                     MA,                     TA,                      A,                     AD,                     PR,
**************************************************************************************************************************************************************************************************************************************************************************************************************************************************
$$SOE
2457624.500000000, A.D. 2016-Aug-24 00:00:00.0000,  7.959546446014474E-01,  9.262493996581067E+07,  4.447526473741503E+00,  1.639064367746955E+02,  1.972343639825433E+02,  2.458589387576835E+06,  2.158125073883743E-06,  1.800851264887882E+02,  1.800159766261918E+02,  4.539428980624951E+08,  8.152608561591794E+08,  1.668114625776286E+08,
2457625.500000000, A.D. 2016-Aug-25 00:00:00.0000,  8.721380155149502E-01,  5.568077219666957E+07,  3.235333528185821E+00,  1.570876684685545E+02,  2.039636431972837E+02,  2.458528129502002E+06,  2.296850541352636E-06,  1.808750827889485E+02,  1.801221567747747E+02,  4.354755826832952E+08,  8.152703931699208E+08,  1.567363629102278E+08,
2457626.500000000, A.D. 2016-Aug-26 00:00:00.0000,  9.589878672941871E-01,  1.706897328768702E+07,  4.577405574283891E+00,  1.788980833064113E+01,  3.430669114916740E+02,  2.458464120621088E+06,  2.458305667202112E-06,  1.820913822903925E+02,  1.801544779825971E+02,  4.161932618848590E+08,  8.153175504820310E+08,  1.464423260308915E+08,
2457627.500000000, A.D. 2016-Aug-27 00:00:00.0000,  9.344864222497468E-01,  2.762417311529662E+07,  1.414382609509214E+02,  3.595150792777945E+02,  3.573796423725175E+02,  2.458465955558471E+06,  2.410690713488872E-06,  1.853633927394644E+02,  1.805104116128214E+02,  4.216556943448218E+08,  8.156872155743470E+08,  1.493347935451205E+08,
2457628.500000000, A.D. 2016-Aug-28 00:00:00.0000,  3.831332749980404E+00,  8.150441363867499E+08,  1.154067901210646E+01,  7.352408678487848E+00,  1.724897921064433E+02,  2.457621103490530E+06,  4.273592683338089E-06,  2.731075380247636E+00,  1.259868684957244E+00, -2.878658950956548E+08,  9.999999999999998E+99,  9.999999999999998E+99,
2457629.500000000, A.D. 2016-Aug-29 00:00:00.0000,  2.080515894805210E+00,  8.149868927333896E+08,  5.958612488459961E+00,  1.321963239312311E+01,  1.663509221146543E+02,  2.457616693719112E+06,  1.007625740107725E-06,  1.114900265487941E+00,  1.741849515416420E+00, -7.542571994096500E+08,  9.999999999999998E+99,  9.999999999999998E+99,
2457630.500000000, A.D. 2016-Aug-30 00:00:00.0000,  1.552548209522772E+00,  8.149611747116702E+08,  4.125467480261117E+00,  1.862598701188723E+01,  1.607800971260921E+02,  2.457613896312705E+06,  3.684922299170537E-07,  5.286236909368283E-01,  2.055724767038915E+00, -1.474914153491765E+09,  9.999999999999998E+99,  9.999999999999998E+99,
